[{"OBJECT_NAME":"EXO-0","OBJECT_ID":"2023-174DK","EPOCH":"2026-03-09T17:03:04.419648","MEAN_MOTION":15.32821991,"ECCENTRICITY":0.00098779,"INCLINATION":97.3864,"RA_OF_ASC_NODE":148.9039,"ARG_OF_PERICENTER":157.1125,"MEAN_ANOMALY":203.0559,"EPHEMERIS_TYPE":0,"CLASSIFICATION_TYPE":"U","NORAD_CAT_ID":59175,"ELEMENT_SET_NO":999,"REV_AT_EPOCH":12979,"BSTAR":0.00036716083,"MEAN_MOTION_DOT":0.00011582,"MEAN_MOTION_DDOT":0},{"OBJECT_NAME":"STARLINK-33862","OBJECT_ID":"2025-087N","EPOCH":"2026-03-09T17:07:09.925248","MEAN_MOTION":15.30204885,"ECCENTRICITY":8.441e-5,"INCLINATION":53.1574,"RA_OF_ASC_NODE":219.4155,"ARG_OF_PERICENTER":97.5132,"MEAN_ANOMALY":262.5964,"EPHEMERIS_TYPE":0,"CLASSIFICATION_TYPE":"U","NORAD_CAT_ID":63709,"ELEMENT_SET_NO":999,"REV_AT_EPOCH":4920,"BSTAR":0.0010457536,"MEAN_MOTION_DOT":0.00030746,"MEAN_MOTION_DDOT":0}]
